[{"OBJECT_NAME":"RAISE 2","OBJECT_ID":"2021-102C","EPOCH":"2026-03-09T15:24:00.371808","MEAN_MOTION":15.20242049,"ECCENTRICITY":0.0007134,"INCLINATION":97.3388,"RA_OF_ASC_NODE":104.317,"ARG_OF_PERICENTER":273.4447,"MEAN_ANOMALY":86.5972,"EPHEMERIS_TYPE":0,"CLASSIFICATION_TYPE":"U","NORAD_CAT_ID":49397,"ELEMENT_SET_NO":999,"REV_AT_EPOCH":23830,"BSTAR":0.00039057,"MEAN_MOTION_DOT":8.413e-5,"MEAN_MOTION_DDOT":0},{"OBJECT_NAME":"COSMOS 1275 DEB","OBJECT_ID":"1981-053GB","EPOCH":"2026-03-09T12:07:35.563872","MEAN_MOTION":15.18010704,"ECCENTRICITY":0.0001087,"INCLINATION":82.9638,"RA_OF_ASC_NODE":94.4677,"ARG_OF_PERICENTER":59.5109,"MEAN_ANOMALY":300.6233,"EPHEMERIS_TYPE":0,"CLASSIFICATION_TYPE":"U","NORAD_CAT_ID":13481,"ELEMENT_SET_NO":999,"REV_AT_EPOCH":25258,"BSTAR":0.0069311321,"MEAN_MOTION_DOT":0.00143562,"MEAN_MOTION_DDOT":0}]
